[{"OBJECT_NAME":"STARLINK-5728","OBJECT_ID":"2023-020V","EPOCH":"2026-03-09T22:00:01.999584","MEAN_MOTION":15.12999401,"ECCENTRICITY":0.00012068,"INCLINATION":43.0006,"RA_OF_ASC_NODE":2.7584,"ARG_OF_PERICENTER":279.492,"MEAN_ANOMALY":348.9005,"EPHEMERIS_TYPE":0,"CLASSIFICATION_TYPE":"U","NORAD_CAT_ID":55588,"ELEMENT_SET_NO":999,"REV_AT_EPOCH":573,"BSTAR":0.026730069,"MEAN_MOTION_DOT":0.00510293,"MEAN_MOTION_DDOT":0},{"OBJECT_NAME":"SL-8 DEB","OBJECT_ID":"1977-059D","EPOCH":"2026-03-09T17:54:55.494432","MEAN_MOTION":15.2130551,"ECCENTRICITY":0.0004146,"INCLINATION":74.0432,"RA_OF_ASC_NODE":189.1557,"ARG_OF_PERICENTER":2.1163,"MEAN_ANOMALY":118.2856,"EPHEMERIS_TYPE":0,"CLASSIFICATION_TYPE":"U","NORAD_CAT_ID":14818,"ELEMENT_SET_NO":999,"REV_AT_EPOCH":40248,"BSTAR":0.0014031002,"MEAN_MOTION_DOT":0.00031504,"MEAN_MOTION_DDOT":0}]
